NOAA 1 [-]              
1 04793U 70106A   23263.39473057 -.00000033  00000+0  64754-4 0  9997
2 04793 101.4930 319.3715 0031926 145.5866 225.8260 12.54018839415723
NOAA 2 (ITOS-D) [-]     
1 06235U 72082A   23261.93752490 -.00000038  00000+0  54452-4 0  9993
2 06235 101.9999 252.9519 0003745 282.9463 132.5563 12.53167454329403
NOAA 3 [-]              
1 06920U 73086A   23263.53715845 -.00000032  00000+0  10333-3 0  9993
2 06920 102.2568 252.3934 0006445 160.8051 313.9485 12.40358114258020
NOAA 4 [-]              
1 07529U 74089A   23263.52357779 -.00000036  00000+0  63844-4 0  9990
2 07529 101.9658 250.5371 0008780 307.0350 164.8861 12.53171716234422
NOAA 5 [-]              
1 09057U 76077A   23262.79633552 -.00000025  00000+0  15648-3 0  9997
2 09057 102.1647 232.1404 0010109  15.1404  47.6462 12.37788855130799
TIROS N [-]             
1 11060U 78096A   23263.38975047  .00000281  00000+0  15598-3 0  9998
2 11060  98.5741 308.3788 0009462 256.3230 103.6893 14.18630082537056
NOAA 6 [-]              
1 11416U 79057A   23262.05521766  .00000527  00000+0  20418-3 0  9999
2 11416  98.6502 278.4006 0010015 351.3170   8.7840 14.34158241307458
NOAA 7 [-]              
1 12553U 81059A   23262.78515716  .00000086  00000+0  64689-4 0  9994
2 12553  98.9368 316.2972 0010573 246.2304 113.7762 14.17437828183080
NOAA 8 [-]              
1 13923U 83022A   23262.49841791  .00000277  00000+0  12712-3 0  9992
2 13923  98.7194 257.1901 0014199 310.5360  49.4584 14.29041455108227
NOAA 9 [-]              
1 15427U 84123A   23263.50774861  .00000266  00000+0  15724-3 0  9996
2 15427  99.0991 249.6106 0014007 305.0500 166.1216 14.16414113  1966
NOAA 10 [-]             
1 16969U 86073A   23262.52158747  .00000275  00000+0  12742-3 0  9991
2 16969  98.6136 246.4635 0013139  50.8243  59.0075 14.28418546926629
NOAA 11 [-]             
1 19531U 88089A   23262.77800469  .00000118  00000+0  81414-4 0  9999
2 19531  98.4770 232.9339 0010129 299.0999  60.9161 14.15427996806046
NOAA 12 [-]             
1 21263U 91032A   23262.49795358  .00000188  00000+0  96194-4 0  9993
2 21263  98.5396 255.0781 0014863  77.5146 282.7697 14.26161070682416
NOAA 13 [-]             
1 22739U 93050A   23262.75120194  .00000242  00000+0  15173-3 0  9991
2 22739  98.5640 226.2016 0010523 106.6688 253.5641 14.13042180552150
NOAA 14 [-]             
1 23455U 94089A   23263.49521311  .00000111  00000+0  79158-4 0  9997
2 23455  98.4281 269.6616 0010668  82.6088 277.6298 14.14300346481978
NOAA 15 [B]             
1 25338U 98030A   23263.34799656  .00000289  00000+0  13818-3 0  9998
2 25338  98.6005 290.7554 0011009  41.4520 318.7494 14.26391782318821
NOAA 16 [-]             
1 26536U 00055A   23262.41030254  .00000149  00000+0  10157-3 0  9996
2 26536  98.5741 308.8894 0009407 296.6417  63.3792 14.13464891185682
NOAA 17 [-]             
1 27453U 02032A   23262.77818841  .00000327  00000+0  15763-3 0  9993
2 27453  98.7232 209.1216 0012306  22.0900 338.0808 14.25363124104297
NOAA 18 [B]             
1 28654U 05018A   23263.37894546  .00000327  00000+0  19909-3 0  9993
2 28654  98.9029 337.2825 0015298 110.0555 250.2265 14.13009150945011
NOAA 19 [+]             
1 33591U 09005A   23263.36460833  .00000279  00000+0  17469-3 0  9991
2 33591  99.0905 310.7732 0013356 339.1005  20.9619 14.12823802753381
SUOMI NPP [+]           
1 37849U 11061A   23263.40532799  .00000188  00000+0  10965-3 0  9995
2 37849  98.7084 200.5196 0001221  61.3291  55.5296 14.19568073616447
NOAA 20 [+]             
1 43013U 17073A   23263.41755906  .00000171  00000+0  10181-3 0  9994
2 43013  98.7162 200.3817 0001012 108.0658 252.0629 14.19565145302483
NOAA 21 (JPSS-2) [+]    
1 54234U 22150A   23263.08098261  .00000193  00000+0  11243-3 0  9994
2 54234  98.7200 199.5606 0001465 101.1864 258.9477 14.19548644 44511
